[
    {
        "Altitude(m)": 604969.0890045449,
        "Argument of Periapsis(deg)": 0.0,
        "Eccentricity": 0.0,
        "Inclination(deg)": 60.0,
        "Latitude(deg)": -0.09255061464262805,
        "Longitude(deg)": 129.97752752912928,
        "Mean Anomaly(deg)": 0.0,
        "RAAN(deg)": 229.99999999999997,
        "Satellite Name": "Test1 1012",
        "Satellite Number": 1012,
        "Semi-Major Axis(m)": 6980739.136638005,
        "Time(s)": 0
    },
    {
        "Altitude(m)": 604900.0292687803,
        "Argument of Periapsis(deg)": 0.00010418945913296404,
        "Eccentricity": 0.0,
        "Inclination(deg)": 60.0,
        "Latitude(deg)": 0.4478750570947655,
        "Longitude(deg)": 130.2456510048413,
        "Mean Anomaly(deg)": 0.620106145461853,
        "RAAN(deg)": 229.99957995086024,
        "Satellite Name": "Test1 1012",
        "Satellite Number": 1012,
        "Semi-Major Axis(m)": 6980739.136638005,
        "Time(s)": 10
    }
]